LEOPARD                 
1 67687U 98067YD  26058.67731057  .00034998  00000+0  59507-3 0  9992
2 67687  51.6315 121.5508 0007689 120.8640 239.3107 15.51065082  3157
ISS OBJECT YE           
1 67688U 98067YE  26058.41703609  .00043696  00000+0  73242-3 0  9994
2 67688  51.6320 122.8134 0007619 117.1331 243.0436 15.51362636  3110
PRC TEST SPACECRAFT 4   
1 67689U 26024A   26058.71278207  .00000050  00000+0  28946-4 0  9992
2 67689  49.9853  69.6056 0006155 321.7052  38.3452 14.91679194  3093
CZ-2F R/B               
1 67690U 26024B   26058.60699578  .00018305  00000+0  33867-3 0  9999
2 67690  49.9880  65.1519 0175666 233.1307 125.3438 15.33882170  3147
CZ-2F DEB               
1 67691U 26024C   26058.70650244  .00790588  10672-4  67875-3 0  9995
2 67691  49.9045  58.7410 0187051 245.8187 112.3139 15.85815830  3225
CZ-2F DEB               
1 67692U 26024D   26058.57302874  .00191945  00000+0  35933-2 0  9994
2 67692  50.3170  68.2620 0246413 240.2846 117.3385 15.20943539  3088
STARLINK-36748          
1 67693U 26025A   26058.63162730  .00177316  00000+0  11639-2 0  9991
2 67693  97.2840 169.6674 0001443  92.1501 267.9929 15.75214090  4352
STARLINK-36753          
1 67694U 26025B   26058.66671296  .00131914  00000+0  87417-3 0  9999
2 67694  97.2842 169.7220 0001405 102.3031 140.6668 15.75124071  4405
STARLINK-36750          
1 67695U 26025C   26058.67808281  .00263125  00000+0  13286-2 0  9999
2 67695  97.2848 169.7572 0001110 105.9222 254.2169 15.80895953  4369
STARLINK-36401          
1 67696U 26025D   26058.67653174  .00224596  00000+0  11399-2 0  9991
2 67696  97.2850 169.7589 0001248  95.1174 265.0236 15.80883235  4364
STARLINK-36704          
1 67697U 26025E   26058.66671296  .00120400  00000+0  79876-3 0  9990
2 67697  97.2842 169.7265 0001418  97.9664 157.0031 15.75131835  4246
STARLINK-36697          
1 67698U 26025F   26058.67162482  .00201989  00000+0  10286-2 0  9995
2 67698  97.2853 169.7652 0001155  78.8799 281.2599 15.80867472  4365
