CCSDS_OMM_VERS = 2.0
CREATION_DATE  = 
ORIGINATOR     = 

OBJECT_NAME    = LEOPARD
OBJECT_ID      = 1998-067YD
CENTER_NAME    = EARTH
REF_FRAME      = TEME
TIME_SYSTEM    = UTC
MEAN_ELEMENT_THEORY = SGP/SGP4

EPOCH          = 2026-02-27T16:15:19.633248
MEAN_MOTION    = 15.51065082
ECCENTRICITY   = .0007689
INCLINATION    = 51.6315
RA_OF_ASC_NODE = 121.5508
ARG_OF_PERICENTER = 120.8640
MEAN_ANOMALY   = 239.3107

EPHEMERIS_TYPE = 0
CLASSIFICATION_TYPE = U
NORAD_CAT_ID   = 67687
ELEMENT_SET_NO = 999
REV_AT_EPOCH   = 315
BSTAR          = .59507E-3
MEAN_MOTION_DOT = .34998E-3
MEAN_MOTION_DDOT = 0

CCSDS_OMM_VERS = 2.0
CREATION_DATE  = 
ORIGINATOR     = 

OBJECT_NAME    = ISS OBJECT YE
OBJECT_ID      = 1998-067YE
CENTER_NAME    = EARTH
REF_FRAME      = TEME
TIME_SYSTEM    = UTC
MEAN_ELEMENT_THEORY = SGP/SGP4

EPOCH          = 2026-02-27T10:00:31.918176
MEAN_MOTION    = 15.51362636
ECCENTRICITY   = .0007619
INCLINATION    = 51.6320
RA_OF_ASC_NODE = 122.8134
ARG_OF_PERICENTER = 117.1331
MEAN_ANOMALY   = 243.0436

EPHEMERIS_TYPE = 0
CLASSIFICATION_TYPE = U
NORAD_CAT_ID   = 67688
ELEMENT_SET_NO = 999
REV_AT_EPOCH   = 311
BSTAR          = .73242E-3
MEAN_MOTION_DOT = .43696E-3
MEAN_MOTION_DDOT = 0

CCSDS_OMM_VERS = 2.0
CREATION_DATE  = 
ORIGINATOR     = 

OBJECT_NAME    = PRC TEST SPACECRAFT 4
OBJECT_ID      = 2026-024A
CENTER_NAME    = EARTH
REF_FRAME      = TEME
TIME_SYSTEM    = UTC
MEAN_ELEMENT_THEORY = SGP/SGP4

EPOCH          = 2026-02-27T17:06:24.370848
MEAN_MOTION    = 14.91679194
ECCENTRICITY   = .0006155
INCLINATION    = 49.9853
RA_OF_ASC_NODE = 69.6056
ARG_OF_PERICENTER = 321.7052
MEAN_ANOMALY   = 38.3452

EPHEMERIS_TYPE = 0
CLASSIFICATION_TYPE = U
NORAD_CAT_ID   = 67689
ELEMENT_SET_NO = 999
REV_AT_EPOCH   = 309
BSTAR          = .28946E-4
MEAN_MOTION_DOT = .5E-6
MEAN_MOTION_DDOT = 0

CCSDS_OMM_VERS = 2.0
CREATION_DATE  = 
ORIGINATOR     = 

OBJECT_NAME    = CZ-2F R/B
OBJECT_ID      = 2026-024B
CENTER_NAME    = EARTH
REF_FRAME      = TEME
TIME_SYSTEM    = UTC
MEAN_ELEMENT_THEORY = SGP/SGP4

EPOCH          = 2026-02-27T14:34:04.435392
MEAN_MOTION    = 15.33882170
ECCENTRICITY   = .0175666
INCLINATION    = 49.9880
RA_OF_ASC_NODE = 65.1519
ARG_OF_PERICENTER = 233.1307
MEAN_ANOMALY   = 125.3438

EPHEMERIS_TYPE = 0
CLASSIFICATION_TYPE = U
NORAD_CAT_ID   = 67690
ELEMENT_SET_NO = 999
REV_AT_EPOCH   = 314
BSTAR          = .33867E-3
MEAN_MOTION_DOT = .18305E-3
MEAN_MOTION_DDOT = 0

CCSDS_OMM_VERS = 2.0
CREATION_DATE  = 
ORIGINATOR     = 

OBJECT_NAME    = CZ-2F DEB
OBJECT_ID      = 2026-024C
CENTER_NAME    = EARTH
REF_FRAME      = TEME
TIME_SYSTEM    = UTC
MEAN_ELEMENT_THEORY = SGP/SGP4

EPOCH          = 2026-02-27T16:57:21.810816
MEAN_MOTION    = 15.85815830
ECCENTRICITY   = .0187051
INCLINATION    = 49.9045
RA_OF_ASC_NODE = 58.7410
ARG_OF_PERICENTER = 245.8187
MEAN_ANOMALY   = 112.3139

EPHEMERIS_TYPE = 0
CLASSIFICATION_TYPE = U
NORAD_CAT_ID   = 67691
ELEMENT_SET_NO = 999
REV_AT_EPOCH   = 322
BSTAR          = .67875E-3
MEAN_MOTION_DOT = .790588E-2
MEAN_MOTION_DDOT = .10672E-4

CCSDS_OMM_VERS = 2.0
CREATION_DATE  = 
ORIGINATOR     = 

OBJECT_NAME    = CZ-2F DEB
OBJECT_ID      = 2026-024D
CENTER_NAME    = EARTH
REF_FRAME      = TEME
TIME_SYSTEM    = UTC
MEAN_ELEMENT_THEORY = SGP/SGP4

EPOCH          = 2026-02-27T13:45:09.683136
MEAN_MOTION    = 15.20943539
ECCENTRICITY   = .0246413
INCLINATION    = 50.3170
RA_OF_ASC_NODE = 68.2620
ARG_OF_PERICENTER = 240.2846
MEAN_ANOMALY   = 117.3385

EPHEMERIS_TYPE = 0
CLASSIFICATION_TYPE = U
NORAD_CAT_ID   = 67692
ELEMENT_SET_NO = 999
REV_AT_EPOCH   = 308
BSTAR          = .35933E-2
MEAN_MOTION_DOT = .191945E-2
MEAN_MOTION_DDOT = 0

CCSDS_OMM_VERS = 2.0
CREATION_DATE  = 
ORIGINATOR     = 

OBJECT_NAME    = STARLINK-36748
OBJECT_ID      = 2026-025A
CENTER_NAME    = EARTH
REF_FRAME      = TEME
TIME_SYSTEM    = UTC
MEAN_ELEMENT_THEORY = SGP/SGP4

EPOCH          = 2026-02-27T15:09:32.598720
MEAN_MOTION    = 15.75214090
ECCENTRICITY   = .0001443
INCLINATION    = 97.2840
RA_OF_ASC_NODE = 169.6674
ARG_OF_PERICENTER = 92.1501
MEAN_ANOMALY   = 267.9929

EPHEMERIS_TYPE = 0
CLASSIFICATION_TYPE = U
NORAD_CAT_ID   = 67693
ELEMENT_SET_NO = 999
REV_AT_EPOCH   = 435
BSTAR          = .11639E-2
MEAN_MOTION_DOT = .177316E-2
MEAN_MOTION_DDOT = 0

CCSDS_OMM_VERS = 2.0
CREATION_DATE  = 
ORIGINATOR     = 

OBJECT_NAME    = STARLINK-36753
OBJECT_ID      = 2026-025B
CENTER_NAME    = EARTH
REF_FRAME      = TEME
TIME_SYSTEM    = UTC
MEAN_ELEMENT_THEORY = SGP/SGP4

EPOCH          = 2026-02-27T16:00:03.999744
MEAN_MOTION    = 15.75124071
ECCENTRICITY   = .0001405
INCLINATION    = 97.2842
RA_OF_ASC_NODE = 169.7220
ARG_OF_PERICENTER = 102.3031
MEAN_ANOMALY   = 140.6668

EPHEMERIS_TYPE = 0
CLASSIFICATION_TYPE = U
NORAD_CAT_ID   = 67694
ELEMENT_SET_NO = 999
REV_AT_EPOCH   = 440
BSTAR          = .87417E-3
MEAN_MOTION_DOT = .131914E-2
MEAN_MOTION_DDOT = 0

CCSDS_OMM_VERS = 2.0
CREATION_DATE  = 
ORIGINATOR     = 

OBJECT_NAME    = STARLINK-36750
OBJECT_ID      = 2026-025C
CENTER_NAME    = EARTH
REF_FRAME      = TEME
TIME_SYSTEM    = UTC
MEAN_ELEMENT_THEORY = SGP/SGP4

EPOCH          = 2026-02-27T16:16:26.354784
MEAN_MOTION    = 15.80895953
ECCENTRICITY   = .000111
INCLINATION    = 97.2848
RA_OF_ASC_NODE = 169.7572
ARG_OF_PERICENTER = 105.9222
MEAN_ANOMALY   = 254.2169

EPHEMERIS_TYPE = 0
CLASSIFICATION_TYPE = U
NORAD_CAT_ID   = 67695
ELEMENT_SET_NO = 999
REV_AT_EPOCH   = 436
BSTAR          = .13286E-2
MEAN_MOTION_DOT = .263125E-2
MEAN_MOTION_DDOT = 0

CCSDS_OMM_VERS = 2.0
CREATION_DATE  = 
ORIGINATOR     = 

OBJECT_NAME    = STARLINK-36401
OBJECT_ID      = 2026-025D
CENTER_NAME    = EARTH
REF_FRAME      = TEME
TIME_SYSTEM    = UTC
MEAN_ELEMENT_THEORY = SGP/SGP4

EPOCH          = 2026-02-27T16:14:12.342336
MEAN_MOTION    = 15.80883235
ECCENTRICITY   = .0001248
INCLINATION    = 97.2850
RA_OF_ASC_NODE = 169.7589
ARG_OF_PERICENTER = 95.1174
MEAN_ANOMALY   = 265.0236

EPHEMERIS_TYPE = 0
CLASSIFICATION_TYPE = U
NORAD_CAT_ID   = 67696
ELEMENT_SET_NO = 999
REV_AT_EPOCH   = 436
BSTAR          = .11399E-2
MEAN_MOTION_DOT = .224596E-2
MEAN_MOTION_DDOT = 0

CCSDS_OMM_VERS = 2.0
CREATION_DATE  = 
ORIGINATOR     = 

OBJECT_NAME    = STARLINK-36704
OBJECT_ID      = 2026-025E
CENTER_NAME    = EARTH
REF_FRAME      = TEME
TIME_SYSTEM    = UTC
MEAN_ELEMENT_THEORY = SGP/SGP4

EPOCH          = 2026-02-27T16:00:03.999744
MEAN_MOTION    = 15.75131835
ECCENTRICITY   = .0001418
INCLINATION    = 97.2842
RA_OF_ASC_NODE = 169.7265
ARG_OF_PERICENTER = 97.9664
MEAN_ANOMALY   = 157.0031

EPHEMERIS_TYPE = 0
CLASSIFICATION_TYPE = U
NORAD_CAT_ID   = 67697
ELEMENT_SET_NO = 999
REV_AT_EPOCH   = 424
BSTAR          = .79876E-3
MEAN_MOTION_DOT = .1204E-2
MEAN_MOTION_DDOT = 0

CCSDS_OMM_VERS = 2.0
CREATION_DATE  = 
ORIGINATOR     = 

OBJECT_NAME    = STARLINK-36697
OBJECT_ID      = 2026-025F
CENTER_NAME    = EARTH
REF_FRAME      = TEME
TIME_SYSTEM    = UTC
MEAN_ELEMENT_THEORY = SGP/SGP4

EPOCH          = 2026-02-27T16:07:08.384448
MEAN_MOTION    = 15.80867472
ECCENTRICITY   = .0001155
INCLINATION    = 97.2853
RA_OF_ASC_NODE = 169.7652
ARG_OF_PERICENTER = 78.8799
MEAN_ANOMALY   = 281.2599

EPHEMERIS_TYPE = 0
CLASSIFICATION_TYPE = U
NORAD_CAT_ID   = 67698
ELEMENT_SET_NO = 999
REV_AT_EPOCH   = 436
BSTAR          = .10286E-2
MEAN_MOTION_DOT = .201989E-2
MEAN_MOTION_DDOT = 0

